OBJECT_NAME,OBJECT_ID,EPOCH,MEAN_MOTION,ECCENTRICITY,INCLINATION,RA_OF_ASC_NODE,ARG_OF_PERICENTER,MEAN_ANOMALY,EPHEMERIS_TYPE,CLASSIFICATION_TYPE,NORAD_CAT_ID,ELEMENT_SET_NO,REV_AT_EPOCH,BSTAR,MEAN_MOTION_DOT,MEAN_MOTION_DDOT
BADR-5,2010-025A,2026-07-22T06:20:02.690592,1.00278399,.00058479,0.0361,136.7703,58.1604,230.5979,0,U,36592,999,5356,0,.157E-5,0
COMS 1,2010-032A,2026-07-22T03:04:15.986784,0.99166306,.00114972,4.8926,74.9342,15.2575,190.2430,0,U,36744,999,5143,0,-.161E-5,0
ARABSAT-5A,2010-032B,2026-07-22T06:20:02.690592,1.00270709,.00053701,0.1274,69.2690,57.2656,298.9705,0,U,36745,999,5899,0,.157E-5,0
ECHOSTAR 15,2010-034A,2026-07-22T06:02:38.677920,1.00274134,.00020226,0.0263,297.2682,169.5757,165.0333,0,U,36792,999,5867,0,.2E-7,0
BEIDOU-2 IGSO-1,2010-036A,2026-07-19T14:08:33.404064,1.00262639,.00586524,54.3073,162.6674,225.1805,228.5775,0,U,36828,999,5842,0,-.97E-6,0
NILESAT 201,2010-037A,2026-07-22T02:43:59.981952,1.00271313,.00051001,0.0360,215.0087,280.0473,198.8017,0,U,36830,999,5872,0,-.55E-6,0
RASCOM-QAF 1R,2010-037B,2026-07-22T04:37:38.560224,1.00272039,.00060604,0.0198,83.9709,27.2789,260.9937,0,U,36831,999,5865,0,.21E-6,0
AEHF-1 (USA 214),2010-039A,2026-07-22T06:19:55.203168,1.00278995,.00040098,8.3052,67.5895,38.0519,319.4304,0,U,36868,999,5400,0,.144E-5,0
XM-5,2010-053A,2026-07-22T06:02:38.677920,1.00270729,.00013015,0.0630,264.5598,309.6512,61.2468,0,U,37185,999,5783,0,-.2E-6,0
BSAT-3B,2010-056B,2026-07-22T06:42:30.538368,1.00270767,.00029141,0.0592,239.3288,297.0756,334.0849,0,U,37207,999,5245,0,-.347E-5,0
BEIDOU-2 G4,2010-057A,2026-07-21T20:41:07.389312,1.00273039,.00052804,3.7313,68.7322,184.3388,156.7702,0,U,37210,999,5763,0,-.113E-5,0
SKYTERRA 1,2010-061A,2026-07-21T16:01:16.654368,1.00272217,.0002671,5.1966,50.7966,30.2318,357.3783,0,U,37218,999,5754,0,-.12E-5,0
HYLAS 1,2010-065A,2026-07-21T20:07:09.797376,1.00645096,.00011812,5.7289,72.5897,134.8530,75.1827,0,U,37237,999,723,0,.107E-5,0
INTELSAT 17 (IS-17),2010-065B,2026-07-22T03:04:50.483712,1.00273086,.00025844,0.0149,100.2075,34.9537,276.9355,0,U,37238,999,5359,0,.1E-7,0
BEIDOU-2 IGSO-2,2010-068A,2026-07-21T21:04:35.859648,1.00271863,.00570454,47.4828,271.3972,214.5351,238.1175,0,U,37256,999,5714,0,-.198E-5,0
EUTELSAT KA-SAT 9A,2010-069A,2026-07-22T04:37:38.560224,1.00275573,.00047167,0.0689,337.9365,173.8811,226.5458,0,U,37258,999,4435,0,.65E-6,0
HISPASAT 30W-5,2010-070A,2026-07-22T02:37:30.603936,1.00275294,.00057359,0.0284,178.9795,314.0694,176.1770,0,U,37264,999,5353,0,-.213E-5,0
KOREASAT 6,2010-070B,2026-07-22T04:02:38.601312,1.00272935,.00029061,0.0227,286.5096,202.3185,31.6424,0,U,37265,999,5712,0,-.108E-5,0
BEIDOU-2 IGSO-3,2011-013A,2026-07-21T11:51:52.944192,1.00259347,.00358813,62.4558,39.8259,183.5212,359.9880,0,U,37384,999,5600,0,-.172E-5,0
INTELSAT 28 (IS-28),2011-016A,2026-07-22T02:37:00.651648,1.00271316,.00039828,1.8941,82.1999,43.2306,181.9700,0,U,37392,999,5363,0,-.224E-5,0
YAHSAT 1A,2011-016B,2026-07-22T06:26:02.117184,1.00272146,.00032821,0.0175,74.9514,40.5589,333.5073,0,U,37393,999,4276,0,.104E-5,0
SBIRS GEO-1 (USA 230),2011-019A,2026-07-22T06:26:02.117184,1.00272282,.00018344,4.6114,53.0881,64.2582,330.9826,0,U,37481,999,5575,0,.99E-6,0
TELSTAR 14R,2011-021A,2026-07-22T05:46:38.546688,0.98982108,.00079961,0.1012,85.0324,294.2600,271.2012,0,U,37602,999,5618,0,.9E-7,0
GSAT-8,2011-022A,2026-07-22T03:01:43.283424,1.00271891,.00025244,2.2190,81.3995,150.9042,168.0770,0,U,37605,999,5356,0,.86E-6,0
ST-2,2011-022B,2026-07-22T03:10:38.610048,1.00265577,.00017732,0.0142,48.4199,94.0839,293.0467,0,U,37606,999,5562,0,0,0
ZHONGXING-10,2011-026A,2026-07-22T03:26:38.544288,1.00273133,.00036071,1.1353,83.8173,21.1400,332.1093,0,U,37677,999,5534,0,-.187E-5,0
SES-3,2011-035A,2026-07-22T05:54:38.492640,1.00272082,.00022514,1.4148,82.7033,37.7095,165.2526,0,U,37748,999,5494,0,-.1E-5,0
KAZSAT-2,2011-035B,2026-07-22T03:26:38.544288,1.00272068,.00021847,0.0256,112.6928,56.1833,269.1975,0,U,37749,999,5374,0,-.195E-5,0
BEIDOU-2 IGSO-4,2011-038A,2026-07-21T08:24:46.541952,1.00278546,.01601254,54.6049,165.3688,231.4898,122.8667,0,U,37763,999,5498,0,-.25E-6,0
ASTRA 1N,2011-041A,2026-07-22T06:16:48.002016,1.00273550,.0006052,0.0663,24.0276,93.3397,296.0217,0,U,37775,999,4487,0,.123E-5,0
BSAT-3C (JCSAT-110R),2011-041B,2026-07-22T06:42:45.514080,1.00271061,.00003661,0.0225,332.5880,200.3110,337.7682,0,U,37776,999,5082,0,-.347E-5,0
PAKSAT-1R,2011-042A,2026-07-22T06:22:09.988032,1.00272942,.00032237,0.7775,84.2687,356.5561,352.6834,0,U,37779,999,5482,0,.156E-5,0
