BADR-5                  
1 36592U 10025A   26203.26392003  .00000157  00000+0  00000+0 0  9992
2 36592   0.0361 136.7703 0005847  58.1604 230.5979  1.00278399 53565
COMS 1                  
1 36744U 10032A   26203.12796281 -.00000161  00000+0  00000+0 0  9996
2 36744   4.8926  74.9342 0011497  15.2575 190.2430  0.99166306 51433
ARABSAT-5A              
1 36745U 10032B   26203.26392003  .00000157  00000+0  00000+0 0  9990
2 36745   0.1274  69.2690 0005370  57.2656 298.9705  1.00270709 58996
ECHOSTAR 15             
1 36792U 10034A   26203.25183655  .00000002  00000+0  00000+0 0  9993
2 36792   0.0263 297.2682 0002022 169.5757 165.0333  1.00274134 58671
BEIDOU-2 IGSO-1         
1 36828U 10036A   26200.58927551 -.00000097  00000+0  00000+0 0  9994
2 36828  54.3073 162.6674 0058652 225.1805 228.5775  1.00262639 58426
NILESAT 201             
1 36830U 10037A   26203.11388868 -.00000055  00000+0  00000+0 0  9996
2 36830   0.0360 215.0087 0005100 280.0473 198.8017  1.00271313 58728
RASCOM-QAF 1R           
1 36831U 10037B   26203.19280741  .00000021  00000+0  00000+0 0  9998
2 36831   0.0198  83.9709 0006060  27.2789 260.9937  1.00272039 58658
AEHF-1 (USA 214)        
1 36868U 10039A   26203.26383337  .00000144  00000+0  00000+0 0  9999
2 36868   8.3052  67.5895 0004009  38.0519 319.4304  1.00278995 54004
XM-5                    
1 37185U 10053A   26203.25183655 -.00000020  00000+0  00000+0 0  9992
2 37185   0.0630 264.5598 0001301 309.6512  61.2468  1.00270729 57833
BSAT-3B                 
1 37207U 10056B   26203.27952012 -.00000347  00000+0  00000+0 0  9995
2 37207   0.0592 239.3288 0002914 297.0756 334.0849  1.00270767 52451
BEIDOU-2 G4             
1 37210U 10057A   26202.86189108 -.00000113  00000+0  00000+0 0  9993
2 37210   3.7313  68.7322 0005280 184.3388 156.7702  1.00273039 57634
SKYTERRA 1              
1 37218U 10061A   26202.66755387 -.00000120  00000+0  00000+0 0  9990
2 37218   5.1966  50.7966 0002671  30.2318 357.3783  1.00272217 57545
HYLAS 1                 
1 37237U 10065A   26202.83830784  .00000107  00000+0  00000+0 0  9993
2 37237   5.7289  72.5897 0001181 134.8530  75.1827  1.00645096  7231
INTELSAT 17 (IS-17)     
1 37238U 10065B   26203.12836208  .00000001  00000+0  00000+0 0  9997
2 37238   0.0149 100.2075 0002584  34.9537 276.9355  1.00273086 53590
BEIDOU-2 IGSO-2         
1 37256U 10068A   26202.87819282 -.00000198  00000+0  00000+0 0  9992
2 37256  47.4828 271.3972 0057045 214.5351 238.1175  1.00271863 57143
EUTELSAT KA-SAT 9A      
1 37258U 10069A   26203.19280741  .00000065  00000+0  00000+0 0  9995
2 37258   0.0689 337.9365 0004716 173.8811 226.5458  1.00275573 44351
HISPASAT 30W-5          
1 37264U 10070A   26203.10938199 -.00000213  00000+0  00000+0 0  9998
2 37264   0.0284 178.9795 0005735 314.0694 176.1770  1.00275294 53536
KOREASAT 6              
1 37265U 10070B   26203.16850233 -.00000108  00000+0  00000+0 0  9990
2 37265   0.0227 286.5096 0002906 202.3185  31.6424  1.00272935 57124
BEIDOU-2 IGSO-3         
1 37384U 11013A   26202.49436278 -.00000172  00000+0  00000+0 0  9995
2 37384  62.4558  39.8259 0035881 183.5212 359.9880  1.00259347 56004
INTELSAT 28 (IS-28)     
1 37392U 11016A   26203.10903532 -.00000224  00000+0  00000+0 0  9996
2 37392   1.8941  82.1999 0003982  43.2306 181.9700  1.00271316 53631
YAHSAT 1A               
1 37393U 11016B   26203.26808006  .00000104  00000+0  00000+0 0  9990
2 37393   0.0175  74.9514 0003282  40.5589 333.5073  1.00272146 42762
SBIRS GEO-1 (USA 230)   
1 37481U 11019A   26203.26808006  .00000099  00000+0  00000+0 0  9994
2 37481   4.6114  53.0881 0001834  64.2582 330.9826  1.00272282 55756
TELSTAR 14R             
1 37602U 11021A   26203.24072392  .00000009  00000+0  00000+0 0  9992
2 37602   0.1012  85.0324 0007996 294.2600 271.2012  0.98982108 56180
GSAT-8                  
1 37605U 11022A   26203.12619541  .00000086  00000+0  00000+0 0  9991
2 37605   2.2190  81.3995 0002524 150.9042 168.0770  1.00271891 53563
ST-2                    
1 37606U 11022B   26203.13239132  .00000000  00000+0  00000+0 0  9993
2 37606   0.0142  48.4199 0001773  94.0839 293.0467  1.00265577 55629
ZHONGXING-10            
1 37677U 11026A   26203.14350167 -.00000187  00000+0  00000+0 0  9995
2 37677   1.1353  83.8173 0003607  21.1400 332.1093  1.00273133 55347
SES-3                   
1 37748U 11035A   26203.24627885 -.00000100  00000+0  00000+0 0  9994
2 37748   1.4148  82.7033 0002251  37.7095 165.2526  1.00272082 54944
KAZSAT-2                
1 37749U 11035B   26203.14350167 -.00000195  00000+0  00000+0 0  9994
2 37749   0.0256 112.6928 0002184  56.1833 269.1975  1.00272068 53749
BEIDOU-2 IGSO-4         
1 37763U 11038A   26202.35053868 -.00000025  00000+0  00000+0 0  9995
2 37763  54.6049 165.3688 0160125 231.4898 122.8667  1.00278546 54984
ASTRA 1N                
1 37775U 11041A   26203.26166669  .00000123  00000+0  00000+0 0  9995
2 37775   0.0663  24.0276 0006052  93.3397 296.0217  1.00273550 44877
BSAT-3C (JCSAT-110R)    
1 37776U 11041B   26203.27969345 -.00000347  00000+0  00000+0 0  9998
2 37776   0.0225 332.5880 0000366 200.3110 337.7682  1.00271061 50821
PAKSAT-1R               
1 37779U 11042A   26203.26539338  .00000156  00000+0  00000+0 0  9993
2 37779   0.7775  84.2687 0003223 356.5561 352.6834  1.00272942 54824
